{"type": "FeatureCollection", "features": [ {"type": "Feature", "properties": {"norad_id": 34375, "name": "IRIDIUM 33 DEB", "group": "iridium-33-debris", "lat": 33.46374101833029, "lon": 0.6891258453653324, "alt_km": 758.8864818791371, "timestamp": "2025-12-11T20:41:15.465817+00:00", "meta": {"OBJECT_NAME": "IRIDIUM 33 DEB", "OBJECT_ID": "1997-051FT", "EPOCH": "2025-12-11T00:23:27.996864", "MEAN_MOTION": 14.17987093, "ECCENTRICITY": 0.01031842, "INCLINATION": 86.4327, "RA_OF_ASC_NODE": 183.3931, "ARG_OF_PERICENTER": 132.1212, "MEAN_ANOMALY": 19.5612, "EPHEMERIS_TYPE": 0, "CLASSIFICATION_TYPE": "U", "NORAD_CAT_ID": 34375, "ELEMENT_SET_NO": 999, "REV_AT_EPOCH": 86687, "BSTAR": 0.0005759811, "MEAN_MOTION_DOT": 1.262e-05, "MEAN_MOTION_DDOT": 0}, "tle": {"line1": "1 34375U 97051FT  25345.01629626  .00001262  00000+0  57598-3 0  9992", "line2": "2 34375  86.4327 183.3931 0103184 132.1212  19.5612 14.17987093866879"}}, "geometry": {"type": "Point", "coordinates": [0.6891258453653324, 33.46374101833029]}}, {"type": "Feature", "properties": {"norad_id": 34376, "name": "IRIDIUM 33 DEB", "group": "iridium-33-debris", "lat": 17.458829863661432, "lon": 8.100897798298089, "alt_km": 702.3335223904369, "timestamp": "2025-12-11T20:41:15.465827+00:00", "meta": {"OBJECT_NAME": "IRIDIUM 33 DEB", "OBJECT_ID": "1997-051FU", "EPOCH": "2025-12-11T05:49:44.575392", "MEAN_MOTION": 14.62535541, "ECCENTRICITY": 0.00270137, "INCLINATION": 86.299, "RA_OF_ASC_NODE": 7.2126, "ARG_OF_PERICENTER": 171.6428, "MEAN_ANOMALY": 188.5239, "EPHEMERIS_TYPE": 0, "CLASSIFICATION_TYPE": "U", "NORAD_CAT_ID": 34376, "ELEMENT_SET_NO": 999, "REV_AT_EPOCH": 87985, "BSTAR": 0.0027609719, "MEAN_MOTION_DOT": 0.00014114, "MEAN_MOTION_DDOT": 0}, "tle": {"line1": "1 34376U 97051FU  25345.24287703  .00014114  00000+0  27610-2 0  9995", "line2": "2 34376  86.2990   7.2126 0027013 171.6428 188.5239 14.62535541879858"}}, "geometry": {"type": "Point", "coordinates": [8.100897798298089, 17.458829863661432]}}, {"type": "Feature", "properties": {"norad_id": 34486, "name": "IRIDIUM 33 DEB", "group": "iridium-33-debris", "lat": 50.251263240535586, "lon": -171.91898341190074, "alt_km": 566.4884561582267, "timestamp": "2025-12-11T20:41:15.465838+00:00", "meta": {"OBJECT_NAME": "IRIDIUM 33 DEB", "OBJECT_ID": "1997-051GB", "EPOCH": "2025-12-11T02:42:46.568736", "MEAN_MOTION": 14.95675901, "ECCENTRICITY": 0.00135337, "INCLINATION": 86.394, "RA_OF_ASC_NODE": 12.7753, "ARG_OF_PERICENTER": 118.272, "MEAN_ANOMALY": 301.206, "EPHEMERIS_TYPE": 0, "CLASSIFICATION_TYPE": "U", "NORAD_CAT_ID": 34486, "ELEMENT_SET_NO": 999, "REV_AT_EPOCH": 88962, "BSTAR": 0.0032070049, "MEAN_MOTION_DOT": 0.00035889, "MEAN_MOTION_DDOT": 0}, "tle": {"line1": "1 34486U 97051GB  25345.11303899  .00035889  00000+0  32070-2 0  9996", "line2": "2 34486  86.3940  12.7753 0013533 118.2720 301.2060 14.95675901889620"}}, "geometry": {"type": "Point", "coordinates": [-171.91898341190074, 50.251263240535586]}}, {"type": "Feature", "properties": {"norad_id": 34487, "name": "IRIDIUM 33 DEB", "group": "iridium-33-debris", "lat": -49.21433318537699, "lon": 8.504484098300262, "alt_km": 778.156200684738, "timestamp": "2025-12-11T20:41:15.465848+00:00", "meta": {"OBJECT_NAME": "IRIDIUM 33 DEB", "OBJECT_ID": "1997-051GC", "EPOCH": "2025-12-11T13:19:44.628096", "MEAN_MOTION": 14.43213873, "ECCENTRICITY": 0.00326872, "INCLINATION": 86.3435, "RA_OF_ASC_NODE": 12.8871, "ARG_OF_PERICENTER": 132.1044, "MEAN_ANOMALY": 26.644, "EPHEMERIS_TYPE": 0, "CLASSIFICATION_TYPE": "U", "NORAD_CAT_ID": 34487, "ELEMENT_SET_NO": 999, "REV_AT_EPOCH": 88231, "BSTAR": 0.00027773351, "MEAN_MOTION_DOT": 9.6e-06, "MEAN_MOTION_DDOT": 0}, "tle": {"line1": "1 34487U 97051GC  25345.55537764  .00000960  00000+0  27773-3 0  9992", "line2": "2 34487  86.3435  12.8871 0032687 132.1044  26.6440 14.43213873882315"}}, "geometry": {"type": "Point", "coordinates": [8.504484098300262, -49.21433318537699]}}, {"type": "Feature", "properties": {"norad_id": 34488, "name": "IRIDIUM 33 DEB", "group": "iridium-33-debris", "lat": 6.9917510662093285, "lon": -53.299467615635955, "alt_km": 473.98351775121955, "timestamp": "2025-12-11T20:41:15.465859+00:00", "meta": {"OBJECT_NAME": "IRIDIUM 33 DEB", "OBJECT_ID": "1997-051GD", "EPOCH": "2025-12-11T08:05:29.176800", "MEAN_MOTION": 15.28894611, "ECCENTRICITY": 0.00136408, "INCLINATION": 86.3246, "RA_OF_ASC_NODE": 306.5086, "ARG_OF_PERICENTER": 54.3044, "MEAN_ANOMALY": 305.9471, "EPHEMERIS_TYPE": 0, "CLASSIFICATION_TYPE": "U", "NORAD_CAT_ID": 34488, "ELEMENT_SET_NO": 999, "REV_AT_EPOCH": 89218, "BSTAR": 0.0084778967, "MEAN_MOTION_DOT": 0.00245926, "MEAN_MOTION_DDOT": 0}, "tle": {"line1": "1 34488U 97051GD  25345.33714325  .00245926  00000+0  84779-2 0  9990", "line2": "2 34488  86.3246 306.5086 0013640  54.3044 305.9471 15.28894611892182"}}, "geometry": {"type": "Point", "coordinates": [-53.299467615635955, 6.9917510662093285]}}, {"type": "Feature", "properties": {"norad_id": 34492, "name": "IRIDIUM 33 DEB", "group": "iridium-33-debris", "lat": 84.23985635314128, "lon": 117.28914549983102, "alt_km": 911.1781910317186, "timestamp": "2025-12-11T20:41:15.465869+00:00", "meta": {"OBJECT_NAME": "IRIDIUM 33 DEB", "OBJECT_ID": "1997-051GH", "EPOCH": "2025-12-11T10:51:29.088000", "MEAN_MOTION": 14.25685433, "ECCENTRICITY": 0.01891489, "INCLINATION": 86.4728, "RA_OF_ASC_NODE": 335.1486, "ARG_OF_PERICENTER": 242.3501, "MEAN_ANOMALY": 272.6341, "EPHEMERIS_TYPE": 0, "CLASSIFICATION_TYPE": "U", "NORAD_CAT_ID": 34492, "ELEMENT_SET_NO": 999, "REV_AT_EPOCH": 85040, "BSTAR": 0.0095833732, "MEAN_MOTION_DOT": 0.00027512, "MEAN_MOTION_DDOT": 0}, "tle": {"line1": "1 34492U 97051GH  25345.45242000  .00027512  00000+0  95834-2 0  9997", "line2": "2 34492  86.4728 335.1486 0189148 242.3501 272.6341 14.25685433850400"}}, "geometry": {"type": "Point", "coordinates": [117.28914549983102, 84.23985635314128]}}, {"type": "Feature", "properties": {"norad_id": 34497, "name": "IRIDIUM 33 DEB", "group": "iridium-33-debris", "lat": -31.667637959180738, "lon": 50.47557892862146, "alt_km": 751.3275009729923, "timestamp": "2025-12-11T20:41:15.465879+00:00", "meta": {"OBJECT_NAME": "IRIDIUM 33 DEB", "OBJECT_ID": "1997-051GN", "EPOCH": "2025-12-10T04:35:23.086752", "MEAN_MOTION": 14.2744131, "ECCENTRICITY": 0.00790645, "INCLINATION": 86.2779, "RA_OF_ASC_NODE": 53.4903, "ARG_OF_PERICENTER": 347.8917, "MEAN_ANOMALY": 40.4515, "EPHEMERIS_TYPE": 0, "CLASSIFICATION_TYPE": "U", "NORAD_CAT_ID": 34497, "ELEMENT_SET_NO": 999, "REV_AT_EPOCH": 86847, "BSTAR": 0.00082191095, "MEAN_MOTION_DOT": 2.102e-05, "MEAN_MOTION_DDOT": 0}, "tle": {"line1": "1 34497U 97051GN  25344.19123943  .00002102  00000+0  82191-3 0  9997", "line2": "2 34497  86.2779  53.4903 0079064 347.8917  40.4515 14.27441310868476"}}, "geometry": {"type": "Point", "coordinates": [50.47557892862146, -31.667637959180738]}}, {"type": "Feature", "properties": {"norad_id": 34508, "name": "IRIDIUM 33 DEB", "group": "iridium-33-debris", "lat": 86.15366008661287, "lon": -147.76522726588374, "alt_km": 751.470052819539, "timestamp": "2025-12-11T20:41:15.465890+00:00", "meta": {"OBJECT_NAME": "IRIDIUM 33 DEB", "OBJECT_ID": "1997-051GZ", "EPOCH": "2025-12-11T08:34:28.799328", "MEAN_MOTION": 14.38409637, "ECCENTRICITY": 0.00659674, "INCLINATION": 86.3698, "RA_OF_ASC_NODE": 103.229, "ARG_OF_PERICENTER": 177.4646, "MEAN_ANOMALY": 182.6901, "EPHEMERIS_TYPE": 0, "CLASSIFICATION_TYPE": "U", "NORAD_CAT_ID": 34508, "ELEMENT_SET_NO": 999, "REV_AT_EPOCH": 87289, "BSTAR": 0.0027381025, "MEAN_MOTION_DOT": 8.585e-05, "MEAN_MOTION_DDOT": 0}, "tle": {"line1": "1 34508U 97051GZ  25345.35727777  .00008585  00000+0  27381-2 0  9994", "line2": "2 34508  86.3698 103.2290 0065967 177.4646 182.6901 14.38409637872893"}}, "geometry": {"type": "Point", "coordinates": [-147.76522726588374, 86.15366008661287]}}, {"type": "Feature", "properties": {"norad_id": 34521, "name": "IRIDIUM 33 DEB", "group": "iridium-33-debris", "lat": -11.182566647068617, "lon": -148.34867812614488, "alt_km": 685.9075313382909, "timestamp": "2025-12-11T20:41:15.465900+00:00", "meta": {"OBJECT_NAME": "IRIDIUM 33 DEB", "OBJECT_ID": "1997-051HN", "EPOCH": "2025-12-11T13:15:08.871264", "MEAN_MOTION": 14.63350474, "ECCENTRICITY": 0.00014194, "INCLINATION": 86.3802, "RA_OF_ASC_NODE": 31.0706, "ARG_OF_PERICENTER": 220.6966, "MEAN_ANOMALY": 139.4141, "EPHEMERIS_TYPE": 0, "CLASSIFICATION_TYPE": "U", "NORAD_CAT_ID": 34521, "ELEMENT_SET_NO": 999, "REV_AT_EPOCH": 88455, "BSTAR": 0.0013668765, "MEAN_MOTION_DOT": 7.081e-05, "MEAN_MOTION_DDOT": 0}, "tle": {"line1": "1 34521U 97051HN  25345.55218601  .00007081  00000+0  13669-2 0  9996", "line2": "2 34521  86.3802  31.0706 0001419 220.6966 139.4141 14.63350474884557"}}, "geometry": {"type": "Point", "coordinates": [-148.34867812614488, -11.182566647068617]}}, {"type": "Feature", "properties": {"norad_id": 34525, "name": "IRIDIUM 33 DEB", "group": "iridium-33-debris", "lat": 74.20379918926442, "lon": 60.17508458528444, "alt_km": 737.521395944078, "timestamp": "2025-12-11T20:41:15.465910+00:00", "meta": {"OBJECT_NAME": "IRIDIUM 33 DEB", "OBJECT_ID": "1997-051HS", "EPOCH": "2025-12-11T16:03:46.586016", "MEAN_MOTION": 14.42901861, "ECCENTRICITY": 0.00066977, "INCLINATION": 86.3729, "RA_OF_ASC_NODE": 47.3005, "ARG_OF_PERICENTER": 97.8049, "MEAN_ANOMALY": 56.5607, "EPHEMERIS_TYPE": 0, "CLASSIFICATION_TYPE": "U", "NORAD_CAT_ID": 34525, "ELEMENT_SET_NO": 999, "REV_AT_EPOCH": 88072, "BSTAR": 0.00057422935, "MEAN_MOTION_DOT": 1.938e-05, "MEAN_MOTION_DDOT": 0}, "tle": {"line1": "1 34525U 97051HS  25345.66928919  .00001938  00000+0  57423-3 0  9994", "line2": "2 34525  86.3729  47.3005 0006697  97.8049  56.5607 14.42901861880720"}}, "geometry": {"type": "Point", "coordinates": [60.17508458528444, 74.20379918926442]}}]}